NORAD_CAT_ID,OBJECT_NAME,OBJECT_TYPE,EPOCH,MEAN_MOTION,ECCENTRICITY,INCLINATION,RA_OF_ASC_NODE,ARG_OF_PERICENTER,MEAN_ANOMALY,BSTAR,MEAN_MOTION_DOT,MEAN_MOTION_DDOT,TLE_LINE0,TLE_LINE1,TLE_LINE2,SEMIMAJOR_AXIS,PERIOD,APOGEE,PERIGEE,DECAYED
52096.0,STARLINK-3717,PAYLOAD,2022-07-01 22:00:00,15.08818057,0.0001720999999999,53.2152,5.0223,54.2843,299.3892,0.0025055,0.00039789,0.0,0 STARLINK-3717,1 52096U 22029J   22182.91667824  .00039789  00000-0  25055-2 0  9990,2 52096  53.2152   5.0223 0001721  54.2843 299.3892 15.08818057 17464,6917.946999999999,95.439,541.003,538.622,0.0
52096.0,STARLINK-3717,PAYLOAD,2022-07-02 14:00:01,15.08862432,0.0001592,53.2157,2.0279,61.2807,315.5762,-0.00088388,-0.00014336,0.0,0 STARLINK-3717,1 52096U 22029J   22183.58334491 -.00014336  00000-0 -88388-3 0  9997,2 52096  53.2157   2.0279 0001592  61.2807 315.5762 15.08862432 17565,6917.812,95.436,540.778,538.576,0.0
52096.0,STARLINK-3717,PAYLOAD,2022-07-02 22:00:00,15.08843518,0.000168,53.2156,0.5329999999999999,53.5389,334.9472,0.0022105,0.00035071,0.0,0 STARLINK-3717,1 52096U 22029J   22183.91667824  .00035071  00000-0  22105-2 0  9994,2 52096  53.2156   0.5330 0001680  53.5389 334.9472 15.08843518  1304,6917.87,95.437,540.8969999999998,538.572,0.0
52096.0,STARLINK-3717,PAYLOAD,2022-07-03 14:00:01,15.08853056,0.000154,53.2159,357.5387,56.2552,355.4415,-0.0031526,-0.00050131,0.0,0 STARLINK-3717,1 52096U 22029J   22184.58334491 -.00050131  00000-0 -31526-2 0  9992,2 52096  53.2159 357.5387 0001540  56.2552 355.4415 15.08853056  1304,6917.84,95.437,540.771,538.64,0.0
52096.0,STARLINK-3717,PAYLOAD,2022-07-03 22:00:00,15.08798801,0.0001686999999999,53.2156,356.0438,50.5188,12.7724,0.0029397,0.00046755,0.0,0 STARLINK-3717,1 52096U 22029J   22184.91667824  .00046755  00000-0  29397-2 0  9996,2 52096  53.2156 356.0438 0001687  50.5188  12.7724 15.08798801  1308,6918.005999999999,95.44,541.038,538.7040000000002,0.0
52096.0,STARLINK-3717,PAYLOAD,2022-07-04 06:00:00,15.08813611,0.0001519,53.2156,354.5457,56.8225,18.037,0.00090486,0.00014132,0.0,0 STARLINK-3717,1 52096U 22029J   22185.25001157  .00014132  00000-0  90486-3 0  9997,2 52096  53.2156 354.5457 0001519  56.8225  18.0370 15.08813611 17813,6917.9609999999975,95.439,540.877,538.775,0.0
52096.0,STARLINK-3717,PAYLOAD,2022-07-04 14:00:01,15.08845376,0.0001561999999999,53.2157,353.0498,58.2497,28.1752,-0.001586,-0.00025444,0.0,0 STARLINK-3717,1 52096U 22029J   22185.58334491 -.00025444  00000-0 -15860-2 0  9995,2 52096  53.2157 353.0498 0001562  58.2497  28.1752 15.08845376  1304,6917.864000000001,95.437,540.81,538.648,0.0
52096.0,STARLINK-3717,PAYLOAD,2022-07-04 22:00:00,15.08814092,0.000166,53.2152,351.5548,51.1777,46.8483,0.0030531,0.00048603,0.0,0 STARLINK-3717,1 52096U 22029J   22185.91667824  .00048603  00000-0  30531-2 0  9993,2 52096  53.2152 351.5548 0001660  51.1777  46.8483 15.08814092  1309,6917.96,95.439,540.9730000000002,538.6759999999998,0.0
52096.0,STARLINK-3717,PAYLOAD,2022-07-05 14:00:01,15.08870508,0.0001548,53.2152,348.5609,58.3881,62.8169,-0.0026678,-0.00042531,0.0,0 STARLINK-3717,1 52096U 22029J   22186.58334491 -.00042531  00000-0 -26678-2 0  9991,2 52096  53.2152 348.5609 0001548  58.3881  62.8169 15.08870508 18012,6917.7869999999975,95.436,540.7230000000002,538.581,0.0
52096.0,STARLINK-3717,PAYLOAD,2022-07-05 22:00:00,15.08815973,0.0001585999999999,53.2147,347.0656,49.8596,82.9654,0.0015358,0.00024223,0.0,0 STARLINK-3717,1 52096U 22029J   22186.91667824  .00024223  00000-0  15358-2 0  9996,2 52096  53.2147 347.0656 0001586  49.8596  82.9654 15.08815973  1303,6917.954000000002,95.439,540.9159999999998,538.722,0.0
52096.0,STARLINK-3717,PAYLOAD,2022-07-06 14:00:01,15.08845988,0.0001504,53.2147,344.0719,56.8828,99.0928,-0.0016862,-0.00027028,0.0,0 STARLINK-3717,1 52096U 22029J   22187.58334491 -.00027028  00000-0 -16862-2 0  9990,2 52096  53.2147 344.0719 0001504  56.8828  99.0928 15.08845988 18160,6917.861999999999,95.437,540.768,538.687,0.0
52096.0,STARLINK-3717,PAYLOAD,2022-07-06 19:40:15,15.08834883,0.0001598,53.2163,343.01,55.8912,304.2232,6.206899999999999e-05,7.000000000000003e-06,0.0,0 STARLINK-3717,1 52096U 22029J   22187.81962818  .00000700  00000-0  62069-4 0  9994,2 52096  53.2163 343.0100 0001598  55.8912 304.2232 15.08834883 18203,6917.896,95.438,540.867,538.656,0.0
52096.0,STARLINK-3717,PAYLOAD,2022-07-07 03:37:11,15.08839264,0.0001588,53.2163,341.5233,55.3716,304.7425,6.8687e-05,8.05e-06,0.0,0 STARLINK-3717,1 52096U 22029J   22188.15082615  .00000805  00000-0  68687-4 0  9998,2 52096  53.2163 341.5233 0001588  55.3716 304.7425 15.08839264 18251,6917.8830000000025,95.438,540.846,538.649,0.0
52096.0,STARLINK-3717,PAYLOAD,2022-07-07 14:00:01,15.08868851,0.0001541999999999,53.2145,339.5825,54.7717,135.9857,-0.0025943,-0.00041372,0.0,0 STARLINK-3717,1 52096U 22029J   22188.58334491 -.00041372  00000-0 -25943-2 0  9999,2 52096  53.2145 339.5825 0001542  54.7717 135.9857 15.08868851  1304,6917.792,95.436,540.724,538.59,0.0
52096.0,STARLINK-3717,PAYLOAD,2022-07-07 22:00:00,15.08831546,0.0001643,53.2152,338.0844,46.6633,155.71200000000005,-7.9536e-05,-1.553e-05,0.0,0 STARLINK-3717,1 52096U 22029J   22188.91667824 -.00001553  00000-0 -79536-4 0  9991,2 52096  53.2152 338.0844 0001643  46.6633 155.7120 15.08831546  1300,6917.906,95.438,540.908,538.635,0.0
52096.0,STARLINK-3717,PAYLOAD,2022-07-08 14:00:01,15.08815035,0.0001598,53.2171,335.0857,46.9142,178.6082,0.0022877,0.00036284,0.0,0 STARLINK-3717,1 52096U 22029J   22189.58334491  .00036284  00000-0  22877-2 0  9997,2 52096  53.2171 335.0857 0001598  46.9142 178.6082 15.08815035  1305,6917.956999999999,95.439,540.927,538.716,0.0
52096.0,STARLINK-3717,PAYLOAD,2022-07-08 22:00:01,15.08814265,0.0001643,53.2144,333.5971,44.6564,192.5762,0.0022744,0.00036069,0.0,0 STARLINK-3717,1 52096U 22029J   22189.91668981  .00036069  00000-0  22744-2 0  9992,2 52096  53.2144 333.5971 0001643  44.6564 192.5762 15.08814265  1303,6917.959,95.439,540.961,538.687,0.0
52096.0,STARLINK-3717,PAYLOAD,2022-07-09 04:00:00,15.08830113,0.0001535,53.2149,332.4733,50.8332,105.0074,-0.0016829999999999,-0.00026966,0.0,0 STARLINK-3717,1 52096U 22029J   22190.16667824 -.00026966  00000-0 -16830-2 0  9992,2 52096  53.2149 332.4733 0001535  50.8332 105.0074 15.08830113 18554,6917.911,95.438,540.8380000000002,538.714,0.0
52096.0,STARLINK-3717,PAYLOAD,2022-07-09 14:00:01,15.08808657,0.0001702,53.2149,330.6036,53.1859,207.1067,-0.0010734,-0.00017316,0.0,0 STARLINK-3717,1 52096U 22029J   22190.58334491 -.00017316  00000-0 -10734-2 0  9995,2 52096  53.2149 330.6036 0001702  53.1859 207.1067 15.08808657  1305,6917.976,95.44,541.019,538.664,0.0
52096.0,STARLINK-3717,PAYLOAD,2022-07-09 20:00:01,15.08779845,0.0001783,53.2149,329.482,48.1622,130.8012,0.0035323,0.00056285,0.0,0 STARLINK-3717,1 52096U 22029J   22190.83334491  .00056285  00000-0  35323-2 0  9990,2 52096  53.2149 329.4820 0001783  48.1622 130.8012 15.08779845  1301,6918.064,95.441,541.163,538.696,0.0
52096.0,STARLINK-3717,PAYLOAD,2022-07-10 06:00:00,15.08790915,0.00016,53.215,327.6094,54.9773,228.4338,0.0033267,0.00052983,0.0,0 STARLINK-3717,1 52096U 22029J   22191.25001157  .00052983  00000-0  33267-2 0  9993,2 52096  53.2150 327.6094 0001600  54.9773 228.4338 15.08790915 18715,6918.03,95.441,541.002,538.789,0.0
52096.0,STARLINK-3717,PAYLOAD,2022-07-10 14:00:01,15.08859726,0.0001617,53.2152,326.1142,49.732,245.2907,-0.00098083,-0.00015873,0.0,0 STARLINK-3717,1 52096U 22029J   22191.58334491 -.00015873  00000-0 -98083-3 0  9996,2 52096  53.2152 326.1142 0001617  49.7320 245.2907 15.08859726  1305,6917.82,95.436,540.804,538.566,0.0
52096.0,STARLINK-3717,PAYLOAD,2022-07-10 22:00:00,15.08862486,0.0001639,53.2148,324.6179,44.8719,261.7605,0.00012191,1.654e-05,0.0,0 STARLINK-3717,1 52096U 22029J   22191.91667824  .00001654  00000-0  12191-3 0  9998,2 52096  53.2148 324.6179 0001639  44.8719 261.7605 15.08862486  1300,6917.812,95.436,540.81,538.543,0.0
52096.0,STARLINK-3717,PAYLOAD,2022-07-11 06:00:00,15.08846622,0.0001414,53.2152,323.1197,50.6002,267.6673,0.00077368,0.00012049,0.0,0 STARLINK-3717,1 52096U 22029J   22192.25001157  .00012049  00000-0  77368-3 0  9994,2 52096  53.2152 323.1197 0001414  50.6002 267.6673 15.08846622 18863,6917.86,95.437,540.703,538.747,0.0
52096.0,STARLINK-3717,PAYLOAD,2022-07-11 14:00:01,15.08855615,0.0001519,53.2153,321.6247,46.3201,283.5511,-0.00096197,-0.00015572,0.0,0 STARLINK-3717,1 52096U 22029J   22192.58334491 -.00015572  00000-0 -96197-3 0  9997,2 52096  53.2153 321.6247 0001519  46.3201 283.5511 15.08855615  1303,6917.833000000001,95.437,540.748,538.6469999999998,0.0
52096.0,STARLINK-3717,PAYLOAD,2022-07-11 22:00:00,15.08866983,0.0001587,53.2148,320.1282,43.6665,297.8065,-0.0035234,-0.00055969,0.0,0 STARLINK-3717,1 52096U 22029J   22192.91667824 -.00055969  00000-0 -35234-2 0  9991,2 52096  53.2148 320.1282 0001587  43.6665 297.8065 15.08866983  1301,6917.7980000000025,95.436,540.761,538.565,0.0
52096.0,STARLINK-3717,PAYLOAD,2022-07-12 14:00:01,15.08854266,0.000162,53.2151,317.1355,49.2701,315.406,-0.0006106,-9.996e-05,0.0,0 STARLINK-3717,1 52096U 22029J   22193.58334491 -.00009996  00000-0 -61060-3 0  9992,2 52096  53.2151 317.1355 0001620  49.2701 315.4060 15.08854266 19079,6917.837,95.437,540.822,538.581,0.0
52096.0,STARLINK-3717,PAYLOAD,2022-07-12 22:00:00,15.088854,0.0001682,53.2146,315.6388,46.582,329.7031,-0.0032336999999999,-0.00051449,0.0,0 STARLINK-3717,1 52096U 22029J   22193.91667824 -.00051449  00000-0 -32337-2 0  9992,2 52096  53.2146 315.6388 0001682  46.5820 329.7031 15.08885400  1309,6917.7419999999975,95.435,540.77,538.443,0.0
52096.0,STARLINK-3717,PAYLOAD,2022-07-13 14:00:01,15.08844272,0.0001767,53.2147,312.6464,53.1713,346.3369,-0.002316,-0.00036963,0.0,0 STARLINK-3717,1 52096U 22029J   22194.58334491 -.00036963  00000-0 -23160-2 0  9995,2 52096  53.2147 312.6464 0001767  53.1713 346.3369 15.08844272  1302,6917.8669999999975,95.437,540.955,538.51,0.0
